{"type": "FeatureCollection", "features": [ {"type": "Feature", "properties": {"norad_id": 66746, "name": "TRANSPORTER-15 CJ", "group": "last-30-days", "lat": -32.18073152071839, "lon": 72.02784485437711, "alt_km": 519.9173017173689, "timestamp": "2025-12-21T16:47:53.449576+00:00", "meta": {"OBJECT_NAME": "TRANSPORTER-15 CJ", "OBJECT_ID": "2025-276CJ", "EPOCH": "2025-12-19T04:48:03.204576", "MEAN_MOTION": 15.17416472, "ECCENTRICITY": 9.628e-05, "INCLINATION": 97.4422, "RA_OF_ASC_NODE": 64.8535, "ARG_OF_PERICENTER": 234.0891, "MEAN_ANOMALY": 126.0254, "EPHEMERIS_TYPE": 0, "CLASSIFICATION_TYPE": "U", "NORAD_CAT_ID": 66746, "ELEMENT_SET_NO": 999, "REV_AT_EPOCH": 310, "BSTAR": 0.00013979791, "MEAN_MOTION_DOT": 2.728e-05, "MEAN_MOTION_DDOT": 0}, "tle": {"line1": "1 66746U 25276CJ  25353.20003709  .00002728  00000+0  13980-3 0  9992", "line2": "2 66746  97.4422  64.8535 0000962 234.0891 126.0254 15.17416472  3106"}}, "geometry": {"type": "Point", "coordinates": [72.02784485437711, -32.18073152071839]}}, {"type": "Feature", "properties": {"norad_id": 66747, "name": "W-SERIES 5", "group": "last-30-days", "lat": -33.44088601087847, "lon": 72.265072470805, "alt_km": 525.7610984289813, "timestamp": "2025-12-21T16:47:53.449586+00:00", "meta": {"OBJECT_NAME": "W-SERIES 5", "OBJECT_ID": "2025-276CK", "EPOCH": "2025-12-21T10:36:48.290112", "MEAN_MOTION": 15.16535072, "ECCENTRICITY": 0.0010664, "INCLINATION": 97.444, "RA_OF_ASC_NODE": 67.0586, "ARG_OF_PERICENTER": 94.0328, "MEAN_ANOMALY": 266.2124, "EPHEMERIS_TYPE": 0, "CLASSIFICATION_TYPE": "U", "NORAD_CAT_ID": 66747, "ELEMENT_SET_NO": 999, "REV_AT_EPOCH": 344, "BSTAR": 0.038669, "MEAN_MOTION_DOT": 0.00807245, "MEAN_MOTION_DDOT": 0}, "tle": {"line1": "1 66747U 25276CK  25355.44222558  .00807245  00000+0  38669-1 0  9992", "line2": "2 66747  97.4440  67.0586 0010664  94.0328 266.2124 15.16535072  3444"}}, "geometry": {"type": "Point", "coordinates": [72.265072470805, -33.44088601087847]}}, {"type": "Feature", "properties": {"norad_id": 66748, "name": "TRANSPORTER-15 CL", "group": "last-30-days", "lat": 18.120107774461847, "lon": 64.87852461024923, "alt_km": 512.1774920041771, "timestamp": "2025-12-21T16:47:53.449597+00:00", "meta": {"OBJECT_NAME": "TRANSPORTER-15 CL", "OBJECT_ID": "2025-276CL", "EPOCH": "2025-12-21T10:23:29.643936", "MEAN_MOTION": 15.18432589, "ECCENTRICITY": 0.000195, "INCLINATION": 97.4413, "RA_OF_ASC_NODE": 67.0672, "ARG_OF_PERICENTER": 228.473, "MEAN_ANOMALY": 131.6337, "EPHEMERIS_TYPE": 0, "CLASSIFICATION_TYPE": "U", "NORAD_CAT_ID": 66748, "ELEMENT_SET_NO": 999, "REV_AT_EPOCH": 344, "BSTAR": 0.00077465, "MEAN_MOTION_DOT": 0.00015902, "MEAN_MOTION_DDOT": 0}, "tle": {"line1": "1 66748U 25276CL  25355.43298199  .00015902  00000+0  77465-3 0  9996", "line2": "2 66748  97.4413  67.0672 0001950 228.4730 131.6337 15.18432589  3441"}}, "geometry": {"type": "Point", "coordinates": [64.87852461024923, 18.120107774461847]}}, {"type": "Feature", "properties": {"norad_id": 66749, "name": "TRANSPORTER-15 CM", "group": "last-30-days", "lat": -3.7362627686840524, "lon": 67.80682529499205, "alt_km": 517.0239669774573, "timestamp": "2025-12-21T16:47:53.449607+00:00", "meta": {"OBJECT_NAME": "TRANSPORTER-15 CM", "OBJECT_ID": "2025-276CM", "EPOCH": "2025-12-21T10:29:09.564864", "MEAN_MOTION": 15.17851651, "ECCENTRICITY": 0.0001748, "INCLINATION": 97.4408, "RA_OF_ASC_NODE": 67.0593, "ARG_OF_PERICENTER": 195.9433, "MEAN_ANOMALY": 164.1746, "EPHEMERIS_TYPE": 0, "CLASSIFICATION_TYPE": "U", "NORAD_CAT_ID": 66749, "ELEMENT_SET_NO": 999, "REV_AT_EPOCH": 344, "BSTAR": 0.00039844, "MEAN_MOTION_DOT": 8.003e-05, "MEAN_MOTION_DDOT": 0}, "tle": {"line1": "1 66749U 25276CM  25355.43691626  .00008003  00000+0  39844-3 0  9992", "line2": "2 66749  97.4408  67.0593 0001748 195.9433 164.1746 15.17851651  3440"}}, "geometry": {"type": "Point", "coordinates": [67.80682529499205, -3.7362627686840524]}}, {"type": "Feature", "properties": {"norad_id": 66750, "name": "TRANSPORTER-15 CN", "group": "last-30-days", "lat": 12.38475819472298, "lon": 65.69366423595243, "alt_km": 514.2315671936867, "timestamp": "2025-12-21T16:47:53.449617+00:00", "meta": {"OBJECT_NAME": "TRANSPORTER-15 CN", "OBJECT_ID": "2025-276CN", "EPOCH": "2025-12-21T10:24:54.813600", "MEAN_MOTION": 15.18016899, "ECCENTRICITY": 0.0001938, "INCLINATION": 97.4446, "RA_OF_ASC_NODE": 67.0774, "ARG_OF_PERICENTER": 156.991, "MEAN_ANOMALY": 203.1411, "EPHEMERIS_TYPE": 0, "CLASSIFICATION_TYPE": "U", "NORAD_CAT_ID": 66750, "ELEMENT_SET_NO": 999, "REV_AT_EPOCH": 344, "BSTAR": 0.00036426, "MEAN_MOTION_DOT": 7.345e-05, "MEAN_MOTION_DDOT": 0}, "tle": {"line1": "1 66750U 25276CN  25355.43396775  .00007345  00000+0  36426-3 0  9992", "line2": "2 66750  97.4446  67.0774 0001938 156.9910 203.1411 15.18016899  3444"}}, "geometry": {"type": "Point", "coordinates": [65.69366423595243, 12.38475819472298]}}, {"type": "Feature", "properties": {"norad_id": 66751, "name": "ICEYE-X58", "group": "last-30-days", "lat": -5.295251809278127, "lon": 68.01922509549591, "alt_km": 517.487765131239, "timestamp": "2025-12-21T16:47:53.449629+00:00", "meta": {"OBJECT_NAME": "ICEYE-X58", "OBJECT_ID": "2025-276CP", "EPOCH": "2025-12-21T10:29:33.494208", "MEAN_MOTION": 15.17788147, "ECCENTRICITY": 0.0002236, "INCLINATION": 97.442, "RA_OF_ASC_NODE": 67.0668, "ARG_OF_PERICENTER": 213.315, "MEAN_ANOMALY": 146.7943, "EPHEMERIS_TYPE": 0, "CLASSIFICATION_TYPE": "U", "NORAD_CAT_ID": 66751, "ELEMENT_SET_NO": 999, "REV_AT_EPOCH": 344, "BSTAR": 0.0002957, "MEAN_MOTION_DOT": 5.91e-05, "MEAN_MOTION_DDOT": 0}, "tle": {"line1": "1 66751U 25276CP  25355.43719322  .00005910  00000+0  29570-3 0  9998", "line2": "2 66751  97.4420  67.0668 0002236 213.3150 146.7943 15.17788147  3448"}}, "geometry": {"type": "Point", "coordinates": [68.01922509549591, -5.295251809278127]}}, {"type": "Feature", "properties": {"norad_id": 66752, "name": "ICEYE-X59", "group": "last-30-days", "lat": -20.9273743022334, "lon": 70.18329353091, "alt_km": 518.5721481367573, "timestamp": "2025-12-21T16:47:53.449639+00:00", "meta": {"OBJECT_NAME": "ICEYE-X59", "OBJECT_ID": "2025-276CQ", "EPOCH": "2025-12-21T12:08:37.059072", "MEAN_MOTION": 15.175891, "ECCENTRICITY": 0.0001807, "INCLINATION": 97.4413, "RA_OF_ASC_NODE": 67.1278, "ARG_OF_PERICENTER": 245.2236, "MEAN_ANOMALY": 114.8809, "EPHEMERIS_TYPE": 0, "CLASSIFICATION_TYPE": "U", "NORAD_CAT_ID": 66752, "ELEMENT_SET_NO": 999, "REV_AT_EPOCH": 345, "BSTAR": 0.00023663, "MEAN_MOTION_DOT": 4.688e-05, "MEAN_MOTION_DDOT": 0}, "tle": {"line1": "1 66752U 25276CQ  25355.50598448  .00004688  00000+0  23663-3 0  9999", "line2": "2 66752  97.4413  67.1278 0001807 245.2236 114.8809 15.17589100  3457"}}, "geometry": {"type": "Point", "coordinates": [70.18329353091, -20.9273743022334]}}, {"type": "Feature", "properties": {"norad_id": 66753, "name": "ICEYE-X60", "group": "last-30-days", "lat": -40.23552472800727, "lon": 73.65560587551585, "alt_km": 519.7169597079755, "timestamp": "2025-12-21T16:47:53.449651+00:00", "meta": {"OBJECT_NAME": "ICEYE-X60", "OBJECT_ID": "2025-276CR", "EPOCH": "2025-12-21T10:38:46.247712", "MEAN_MOTION": 15.17364193, "ECCENTRICITY": 0.0001174, "INCLINATION": 97.4415, "RA_OF_ASC_NODE": 67.0543, "ARG_OF_PERICENTER": 286.8277, "MEAN_ANOMALY": 73.2827, "EPHEMERIS_TYPE": 0, "CLASSIFICATION_TYPE": "U", "NORAD_CAT_ID": 66753, "ELEMENT_SET_NO": 999, "REV_AT_EPOCH": 344, "BSTAR": 0.00023547, "MEAN_MOTION_DOT": 4.635e-05, "MEAN_MOTION_DDOT": 0}, "tle": {"line1": "1 66753U 25276CR  25355.44359083  .00004635  00000+0  23547-3 0  9996", "line2": "2 66753  97.4415  67.0543 0001174 286.8277  73.2827 15.17364193  3447"}}, "geometry": {"type": "Point", "coordinates": [73.65560587551585, -40.23552472800727]}}, {"type": "Feature", "properties": {"norad_id": 66754, "name": "ICEYE-X61", "group": "last-30-days", "lat": -0.7752093163972944, "lon": 67.42350234583293, "alt_km": 516.9605868234157, "timestamp": "2025-12-21T16:47:53.449665+00:00", "meta": {"OBJECT_NAME": "ICEYE-X61", "OBJECT_ID": "2025-276CS", "EPOCH": "2025-12-21T10:28:22.006848", "MEAN_MOTION": 15.17832273, "ECCENTRICITY": 0.0002137, "INCLINATION": 97.4413, "RA_OF_ASC_NODE": 67.0631, "ARG_OF_PERICENTER": 199.7655, "MEAN_ANOMALY": 160.3497, "EPHEMERIS_TYPE": 0, "CLASSIFICATION_TYPE": "U", "NORAD_CAT_ID": 66754, "ELEMENT_SET_NO": 999, "REV_AT_EPOCH": 344, "BSTAR": 0.00025742, "MEAN_MOTION_DOT": 5.142e-05, "MEAN_MOTION_DDOT": 0}, "tle": {"line1": "1 66754U 25276CS  25355.43636582  .00005142  00000+0  25742-3 0  9991", "line2": "2 66754  97.4413  67.0631 0002137 199.7655 160.3497 15.17832273  3446"}}, "geometry": {"type": "Point", "coordinates": [67.42350234583293, -0.7752093163972944]}}, {"type": "Feature", "properties": {"norad_id": 66755, "name": "ICEYE-X62", "group": "last-30-days", "lat": -22.490926433621336, "lon": 70.41337282258682, "alt_km": 518.3767958141971, "timestamp": "2025-12-21T16:47:53.449675+00:00", "meta": {"OBJECT_NAME": "ICEYE-X62", "OBJECT_ID": "2025-276CT", "EPOCH": "2025-12-21T10:34:05.498688", "MEAN_MOTION": 15.17610917, "ECCENTRICITY": 6.88e-05, "INCLINATION": 97.4419, "RA_OF_ASC_NODE": 67.056, "ARG_OF_PERICENTER": 267.6081, "MEAN_ANOMALY": 92.5074, "EPHEMERIS_TYPE": 0, "CLASSIFICATION_TYPE": "U", "NORAD_CAT_ID": 66755, "ELEMENT_SET_NO": 999, "REV_AT_EPOCH": 344, "BSTAR": 0.00036928, "MEAN_MOTION_DOT": 7.361e-05, "MEAN_MOTION_DDOT": 0}, "tle": {"line1": "1 66755U 25276CT  25355.44034142  .00007361  00000+0  36928-3 0  9990", "line2": "2 66755  97.4419  67.0560 0000688 267.6081  92.5074 15.17610917  3447"}}, "geometry": {"type": "Point", "coordinates": [70.41337282258682, -22.490926433621336]}}]}